[{"OBJECT_NAME":"STARLINK-4148","OBJECT_ID":"2022-086BD","EPOCH":"2026-03-09T13:16:38.488800","MEAN_MOTION":15.08843952,"ECCENTRICITY":9.544e-5,"INCLINATION":53.2179,"RA_OF_ASC_NODE":174.7206,"ARG_OF_PERICENTER":100.9938,"MEAN_ANOMALY":259.1161,"EPHEMERIS_TYPE":0,"CLASSIFICATION_TYPE":"U","NORAD_CAT_ID":53293,"ELEMENT_SET_NO":999,"REV_AT_EPOCH":20130,"BSTAR":4.984367e-6,"MEAN_MOTION_DOT":-2.08e-6,"MEAN_MOTION_DDOT":0},{"OBJECT_NAME":"CZ-4B DEB","OBJECT_ID":"2004-035K","EPOCH":"2026-03-08T06:51:30.377664","MEAN_MOTION":15.09293825,"ECCENTRICITY":0.00031468,"INCLINATION":97.5843,"RA_OF_ASC_NODE":91.2716,"ARG_OF_PERICENTER":107.6302,"MEAN_ANOMALY":252.527,"EPHEMERIS_TYPE":0,"CLASSIFICATION_TYPE":"U","NORAD_CAT_ID":29043,"ELEMENT_SET_NO":999,"REV_AT_EPOCH":10418,"BSTAR":0.00031897975,"MEAN_MOTION_DOT":5.021e-5,"MEAN_MOTION_DDOT":0}]
